{
    "links": {
        "self": "http://www.neowsapp.com/rest/v1/neo/3781022?api_key=iIulBulltgU6a56xZRHN4H3l9WmuAYTsLGpBGhQ2"
    },
    "id": "3781022",
    "neo_reference_id": "3781022",
    "name": "(2017 QU17)",
    "designation": "2017 QU17",
    "nasa_jpl_url": "http://ssd.jpl.nasa.gov/sbdb.cgi?sstr=3781022",
    "absolute_magnitude_h": 26.1,
    "estimated_diameter": {
        "kilometers": {
            "estimated_diameter_min": 0.0160160338,
            "estimated_diameter_max": 0.0358129403
        },
        "meters": {
            "estimated_diameter_min": 16.0160337979,
            "estimated_diameter_max": 35.8129403019
        },
        "miles": {
            "estimated_diameter_min": 0.0099518989,
            "estimated_diameter_max": 0.0222531225
        },
        "feet": {
            "estimated_diameter_min": 52.5460443254,
            "estimated_diameter_max": 117.4965270602
        }
    },
    "is_potentially_hazardous_asteroid": false,
    "close_approach_data": [
        {
            "close_approach_date": "2017-08-18",
            "close_approach_date_full": "2017-Aug-18 20:16",
            "epoch_date_close_approach": 1503087360000,
            "relative_velocity": {
                "kilometers_per_second": "7.3289058645",
                "kilometers_per_hour": "26384.0611122055",
                "miles_per_hour": "16394.0295283035"
            },
            "miss_distance": {
                "astronomical": "0.037018544",
                "lunar": "14.400213616",
                "kilometers": "5537895.33290128",
                "miles": "3441088.594466464"
            },
            "orbiting_body": "Earth"
        }
    ],
    "orbital_data": {
        "orbit_id": "2",
        "orbit_determination_date": "2017-08-28 06:20:01",
        "first_observation_date": "2017-08-23",
        "last_observation_date": "2017-08-26",
        "data_arc_in_days": 3,
        "observations_used": 21,
        "orbit_uncertainty": "8",
        "minimum_orbit_intersection": ".0363244",
        "jupiter_tisserand_invariant": "3.524",
        "epoch_osculation": "2457989.5",
        "eccentricity": ".5151141205695402",
        "semi_major_axis": "2.143890376896425",
        "inclination": "4.823878852495809",
        "ascending_node_longitude": "157.3640599213742",
        "orbital_period": "1146.574527589371",
        "perihelion_distance": "1.039542170803923",
        "perihelion_argument": "158.7674184685953",
        "aphelion_distance": "3.248238582988927",
        "perihelion_time": "2457976.109899669370",
        "mean_anomaly": "4.204206532619891",
        "mean_motion": ".3139787177697783",
        "equinox": "J2000",
        "orbit_class": {
            "orbit_class_type": "AMO",
            "orbit_class_description": "Near-Earth asteroid orbits similar to that of 1221 Amor",
            "orbit_class_range": "1.017 AU < q (perihelion) < 1.3 AU"
        }
    },
    "is_sentry_object": false
}